GLOBALSTAR M024         
1 25883U 99043A   24181.53731397 -.00000047  00000+0  62749-3 0  9997
2 25883  52.0008  96.3169 0001057 267.9119 263.4083 11.10156239 75697
GLOBALSTAR M027         
1 25884U 99043B   24181.31614228 -.00000020  00000+0  16416-2 0  9997
2 25884  52.0173 164.8008 0020989 141.6849 218.5439 11.04369215102259
GLOBALSTAR M054         
1 25885U 99043C   24181.47649066  .00000013  00000+0  21459-2 0  9997
2 25885  52.0163 350.9349 0004199 302.2719  71.3242 11.39204881 78851
GLOBALSTAR M053         
1 25886U 99043D   24181.55263931 -.00000053  00000+0  44141-3 0  9999
2 25886  51.9990 278.2850 0003925 197.6456 261.0532 11.27656321 79664
GLOBALSTAR M058         
1 25907U 99049A   24181.71649026 -.00000154  00000+0 -93419-3 0  9995
2 25907  51.9965 330.3502 0001620 329.1154  30.9586 11.93181021110673
GLOBALSTAR M050         
1 25908U 99049B   24181.47189545 -.00000020  00000+0  77094-3 0  9996
2 25908  52.0011   5.0299 0009788  52.5646 322.7869 12.07434693105585
GLOBALSTAR M033         
1 25909U 99049C   24181.56432468 -.00000087  00000+0  43617-4 0  9990
2 25909  51.9911 260.9689 0012340 259.8486 100.0969 12.20273337125413
GLOBALSTAR M055         
1 25910U 99049D   24181.57220555 -.00000062  00000+0  27371-3 0  9996
2 25910  52.0027 288.8530 0007716 120.3651 239.7964 12.29403499124918
